{
"type": "FeatureCollection",
"name": "output",
"features": [
{ "type": "Feature", "properties": { "Id": 0, "gridcode": 0, "Area": 13307.6 }, "geometry": { "type": "Polygon", "coordinates": [ [ [ -813604.702932208776474, 5718671.777230028063059 ], [ -813514.282925993204117, 5718524.699316393584013 ], [ -813005.718333795666695, 5718572.753093976527452 ], [ -811475.389411263167858, 5718717.352397162467241 ], [ -810367.258068591356277, 5719154.808114781975746 ], [ -810340.731875590980053, 5719165.279829058796167 ], [ -810178.465741887688637, 5719229.337441381067038 ], [ -810015.524696446955204, 5719293.661487832665443 ], [ -809036.206642545759678, 5718910.59668280929327 ], [ -809016.893020935356617, 5718601.415890198200941 ], [ -809009.7659667506814, 5718487.322929404675961 ], [ -808991.709385827183723, 5718198.265386059880257 ], [ -808917.678564190864563, 5717013.148030992597342 ], [ -808210.511897467076778, 5716591.346735622733831 ], [ -808062.342563077807426, 5716502.968676917254925 ], [ -807761.003539085388184, 5716420.074800245463848 ], [ -806920.321261465549469, 5716188.815628692507744 ], [ -806673.339999340474606, 5714844.234334956854582 ], [ -806671.512242302298546, 5714840.958354290574789 ], [ -805224.046968534588814, 5713495.912489883601665 ], [ -803382.461914919316769, 5712775.380538620054722 ], [ -802885.098901815712452, 5710632.191534765064716 ], [ -801324.120778553187847, 5710014.908333301544189 ], [ -800539.941704779863358, 5710192.608522098511457 ], [ -798767.476465471088886, 5710034.933119546622038 ], [ -797315.424952983856201, 5710437.985154133290052 ], [ -795781.958993643522263, 5710071.195148721337318 ], [ -794617.465538918972015, 5710267.443169996142387 ], [ -793757.665806010365486, 5708879.432553745806217 ], [ -793807.473569475114346, 5708006.710634313523769 ], [ -792421.646000653505325, 5706519.419422272592783 ], [ -791103.412976078689098, 5704747.235315788537264 ], [ -789270.439623199403286, 5702653.5609544031322 ], [ -787889.737374037504196, 5700019.599003400653601 ], [ -786922.319277659058571, 5698512.820200245827436 ], [ -785676.822436638176441, 5697154.313061907887459 ], [ -785659.892006486654282, 5695311.743108354508877 ], [ -784665.848861187696457, 5694910.2202313169837 ], [ -784209.147008068859577, 5694818.295634694397449 ], [ -782377.320257589221001, 5694632.756318248808384 ], [ -780264.548375733196735, 5695147.816739082336426 ], [ -780197.521568574011326, 5695164.156816206872463 ], [ -780039.198274403810501, 5695202.753535151481628 ], [ -777769.854555629193783, 5694053.97173411026597 ], [ -776469.628194496035576, 5693111.218511044979095 ], [ -775014.823940269649029, 5692486.713449228554964 ], [ -773555.683336488902569, 5692966.306640241295099 ], [ -773060.931438967585564, 5693128.922662761062384 ], [ -772275.755709588527679, 5693356.364847499877214 ], [ -771094.635363377630711, 5693698.500476412475109 ], [ -769931.435663968324661, 5695846.85636131465435 ], [ -767584.583838447928429, 5696002.7517912350595 ], [ -767574.628227867186069, 5696003.413117252290249 ], [ -767248.871573977172375, 5696197.480593137443066 ], [ -766362.266490988433361, 5696725.669990088790655 ], [ -764844.413135394454002, 5696415.40598551928997 ], [ -763556.981754370033741, 5698024.021646942943335 ], [ -763515.064885713160038, 5698076.395802486687899 ], [ -763435.823303908109665, 5698175.406321726739407 ], [ -763292.101871497929096, 5698089.685189884155989 ], [ -762480.252036944031715, 5697605.465922500938177 ], [ -762333.575559660792351, 5697517.982285313308239 ], [ -761648.397959232330322, 5696639.20710015296936 ], [ -758811.143296949565411, 5696555.8102717846632 ], [ -757096.494644433259964, 5695706.092659428715706 ], [ -756453.746521107852459, 5695387.57002804428339 ], [ -756161.892124697566032, 5695427.31078240275383 ], [ -754030.749721623957157, 5695717.500711962580681 ], [ -753987.85698476433754, 5695723.341260328888893 ], [ -753607.141585625708103, 5695781.592662915587425 ], [ -752785.556268870830536, 5695907.299416977912188 ], [ -752641.928690649569035, 5695929.275170776993036 ], [ -752604.676253654062748, 5695934.974984098225832 ], [ -752377.331970490515232, 5695969.759821780025959 ], [ -751642.615385174751282, 5696082.175215780735016 ], [ -749940.214316867291927, 5695686.763840161263943 ], [ -749441.155944474041462, 5695097.090520322322845 ], [ -748979.981887824833393, 5694552.180241148918867 ], [ -748405.392506778240204, 5693873.261608365923166 ], [ -748388.765968829393387, 5693251.293705523014069 ], [ -748353.223027266561985, 5691921.698279909789562 ], [ -748332.854210406541824, 5691159.738673564046621 ], [ -748750.126903213560581, 5688744.314583033323288 ], [ -747575.884374462068081, 5686854.127341754734516 ], [ -746563.634147025644779, 5685660.511534180492163 ], [ -746206.416624486446381, 5685239.291098687797785 ], [ -746143.505060575902462, 5685165.107625935226679 ], [ -745782.194367118179798, 5681655.058247055858374 ], [ -743661.549797624349594, 5680649.298438046127558 ], [ -741087.00758945941925, 5679680.00927373021841 ], [ -740982.619977712631226, 5679538.75635339319706 ], [ -740609.731311045587063, 5679034.179112400859594 ], [ -740326.501396089792252, 5678650.924318592995405 ], [ -740288.562241666018963, 5678599.586652513593435 ], [ -739865.779782004654408, 5678027.495231900364161 ], [ -739790.084334351122379, 5677925.067339718341827 ], [ -739424.620499894022942, 5675348.505382001399994 ], [ -739373.335688464343548, 5674996.42656047642231 ], [ -739277.245647616684437, 5674336.752333454787731 ], [ -739110.064565375447273, 5673189.026198472827673 ], [ -738556.119540624320507, 5672117.62296150252223 ], [ -736499.022460378706455, 5671904.041617896407843 ], [ -735770.501388177275658, 5671828.401770390570164 ], [ -734960.667099229991436, 5671622.390599776059389 ], [ -733507.988555341959, 5671252.848322488367558 ], [ -732877.346975013613701, 5671092.421415433287621 ], [ -732594.769125670194626, 5671020.537334531545639 ], [ -731068.137972787022591, 5671105.033790092915297 ], [ -730717.120903551578522, 5671193.631043262779713 ], [ -729471.647763043642044, 5671507.990397330373526 ], [ -729132.029953382909298, 5671593.710459686815739 ], [ -727525.62191615998745, 5671186.79884784668684 ], [ -725522.297436982393265, 5670771.962573178112507 ], [ -724993.282291397452354, 5672733.436952605843544 ], [ -724920.71717868745327, 5673002.492783274501562 ], [ -724903.300490334630013, 5673067.070117704570293 ], [ -724323.467145651578903, 5674363.633215170353651 ], [ -723986.868051998317242, 5675116.301145441830158 ], [ -723948.024114482104778, 5675203.159923799335957 ], [ -723794.857348524034023, 5675545.655536249279976 ], [ -723776.54282570630312, 5675586.60856981575489 ], [ -720693.986738719046116, 5675000.448322106152773 ], [ -720148.708007507026196, 5674896.761411909013987 ], [ -719808.635813966393471, 5674832.095337528735399 ], [ -717627.800681203603745, 5673776.30267222225666 ], [ -717431.559162750840187, 5673856.305669520050287 ], [ -716537.520012617111206, 5674220.78415635228157 ], [ -716038.956845596432686, 5674424.036495666950941 ], [ -714993.926396884024143, 5672532.014008983969688 ], [ -715811.551133379340172, 5671100.862059351056814 ], [ -716710.159307569265366, 5668469.559450481086969 ], [ -717264.003123216331005, 5666103.10640587285161 ], [ -716386.51255090534687, 5662032.08048115298152 ], [ -714928.897017501294613, 5660054.957141928374767 ], [ -714746.332506887614727, 5659656.791581258177757 ], [ -714296.725141659379005, 5658676.216725639998913 ], [ -713892.172650046646595, 5657793.904664531350136 ], [ -712215.578123308718204, 5656943.952268607914448 ], [ -711467.873355597257614, 5656797.754618033766747 ], [ -710152.450757004320621, 5656540.5519068390131 ], [ -709321.548866242170334, 5656378.086841031908989 ], [ -708566.634188547730446, 5655268.440887231379747 ], [ -708065.265726000070572, 5654531.481463484466076 ], [ -707804.385451219975948, 5654148.014629580080509 ], [ -707680.068841964006424, 5653965.282161187380552 ], [ -707217.466466344892979, 5654130.046390354633331 ], [ -705741.278265006840229, 5654655.817601043730974 ], [ -703371.380756460130215, 5652942.368235744535923 ], [ -702470.923352867364883, 5652500.6516820974648 ], [ -702299.190826587378979, 5652416.408830229192972 ], [ -700244.601807273924351, 5651408.536634184420109 ], [ -697985.013484783470631, 5649320.964523397386074 ], [ -696958.479483410716057, 5648307.12872139364481 ], [ -696816.682307370007038, 5647111.781338814646006 ], [ -697316.198471516370773, 5647014.473797556012869 ], [ -698903.475993305444717, 5646705.266440458595753 ], [ -699481.792013481259346, 5645745.698452662676573 ], [ -698106.214068830013275, 5642000.78106040507555 ], [ -698006.686894364655018, 5641685.704102877527475 ], [ -697919.938097476959229, 5641411.080140717327595 ], [ -697716.436462327837944, 5640766.847282636910677 ], [ -697545.480484396219254, 5640225.645448185503483 ], [ -697324.414635516703129, 5639492.424311719834805 ], [ -697185.982834093272686, 5639033.280019354075193 ], [ -696831.068387754261494, 5637856.115952681750059 ], [ -696400.767668522894382, 5634973.112369000911713 ], [ -695953.212801352143288, 5634535.895425971597433 ], [ -694223.693728245794773, 5632846.325950771570206 ], [ -694098.274498701095581, 5632701.717780683189631 ], [ -694004.231997318565845, 5632532.587000578641891 ], [ -692481.953867040574551, 5629794.845193367451429 ], [ -692512.922142498195171, 5629375.019304394721985 ], [ -692507.029054015874863, 5629363.882359873503447 ], [ -692522.073854215443134, 5629250.952805463224649 ], [ -692740.215459436178207, 5626293.684700600802898 ], [ -693294.001582756638527, 5624874.535139758139849 ], [ -693352.19951993227005, 5624725.395294047892094 ], [ -694144.064447775483131, 5622696.13757649064064 ], [ -694135.449241928756237, 5620822.232755392789841 ], [ -692864.778674751520157, 5619255.502478133887053 ], [ -692078.68340303003788, 5619322.685082245618105 ], [ -691104.24548028409481, 5619405.9641446582973 ], [ -690599.532527409493923, 5619449.098776962608099 ], [ -690233.028195507824421, 5618285.992790974676609 ], [ -690167.632512860000134, 5618078.458791177719831 ], [ -690000.354014180600643, 5617547.598426949232817 ], [ -690311.813419990241528, 5617131.70221358537674 ], [ -691184.952217102050781, 5615965.78745000064373 ], [ -691904.465331643819809, 5615005.011264640837908 ], [ -691740.266523994505405, 5613215.940856702625751 ], [ -692059.676256343722343, 5612876.532393030822277 ], [ -692648.842659741640091, 5612250.477380987256765 ], [ -693092.853427641093731, 5611778.666420560330153 ], [ -693153.919731989502907, 5611713.776661582291126 ], [ -693345.296488709747791, 5611510.417513735592365 ], [ -693524.473309032618999, 5611537.860004860907793 ], [ -693962.547083593904972, 5611603.183351702988148 ], [ -694007.232964336872101, 5612161.560547705739737 ], [ -694721.961664646863937, 5612351.46940615773201 ], [ -695350.680473610758781, 5612593.143704205751419 ], [ -696186.142031289637089, 5613261.309275023639202 ], [ -696710.348393157124519, 5613356.59498343244195 ], [ -697123.122253909707069, 5613055.057310249656439 ], [ -697335.288165554404259, 5612965.661009524017572 ], [ -697627.304629653692245, 5612752.341755531728268 ], [ -697901.309321902692318, 5612786.414432875812054 ], [ -698128.247831180691719, 5612653.007079340517521 ], [ -698340.413742825388908, 5612563.610778607428074 ], [ -698685.50849362462759, 5612360.757492855191231 ], [ -698861.650861635804176, 5611744.688640795648098 ], [ -699225.591717034578323, 5611246.444751128554344 ], [ -700451.177455104887486, 5611156.434970431029797 ], [ -700968.390145339071751, 5610778.617198199033737 ], [ -701500.988913141191006, 5610899.595447611063719 ], [ -701793.373465225100517, 5611238.960295535624027 ], [ -703051.375484727323055, 5611604.287615645676851 ], [ -703449.769375018775463, 5612066.704275265336037 ], [ -704257.538447052240372, 5612309.900003626942635 ], [ -704483.286805160343647, 5611316.22196252644062 ], [ -704730.470153301954269, 5611103.270796526223421 ], [ -705658.935273930430412, 5611271.609699357300997 ], [ -706327.076305530965328, 5611026.254521515220404 ], [ -706747.641361854970455, 5611060.044998083263636 ], [ -707980.306658759713173, 5611858.206973820924759 ], [ -709139.943300403654575, 5611904.721024885773659 ], [ -709286.969909213483334, 5611649.697402767837048 ], [ -709394.966922529041767, 5611556.669300638139248 ], [ -709532.754523031413555, 5610950.12165766581893 ], [ -710126.811713881790638, 5610731.968181539326906 ], [ -711049.681897208094597, 5610899.595447611063719 ], [ -711104.588354229927063, 5610853.989346899092197 ], [ -711393.058904141187668, 5610386.309029161930084 ], [ -711661.763129509985447, 5609668.942365020513535 ], [ -711950.196870587766171, 5609429.353898867964745 ], [ -712348.615300111472607, 5608868.559591796249151 ], [ -712996.082056857645512, 5608724.980740416795015 ], [ -713139.513673044741154, 5608078.152002837508917 ], [ -715110.42849213629961, 5608295.483415804803371 ], [ -715316.815422497689724, 5607837.005297567695379 ], [ -715102.183321371674538, 5606872.86018206179142 ], [ -715253.492020346224308, 5606331.672694727778435 ], [ -715480.160598404705524, 5605935.916768278926611 ], [ -715728.166009701788425, 5605828.361460529267788 ], [ -715873.757075361907482, 5605653.077964477241039 ], [ -716376.847456783056259, 5605270.892214886844158 ], [ -716429.030062735080719, 5604736.342580791562796 ], [ -716648.717238776385784, 5603967.958922624588013 ], [ -716848.613551095128059, 5603807.889729741960764 ], [ -717024.620953477919102, 5602400.726191163063049 ], [ -717136.249768234789371, 5602009.792217247188091 ], [ -717180.947918586432934, 5601752.952694427222013 ], [ -717582.998149506747723, 5601815.3190678358078 ], [ -718466.176179021596909, 5601678.316721696406603 ], [ -719132.476770743727684, 5601860.667506966739893 ], [ -719281.834603413939476, 5601203.237835559993982 ], [ -719747.760368444025517, 5600801.825623817741871 ], [ -719840.788470573723316, 5600693.828610498458147 ], [ -719948.78548389673233, 5600600.800508361309767 ], [ -720124.621111921966076, 5600206.737786617130041 ], [ -720953.91106116771698, 5600098.237719725817442 ], [ -721316.919427007436752, 5599964.928522981703281 ], [ -721809.948736943304539, 5599109.774258349090815 ], [ -722655.140086941421032, 5599294.137257903814316 ], [ -723010.676266767084599, 5599340.651308976113796 ], [ -723060.699423246085644, 5599275.843285299837589 ], [ -723511.423154719173908, 5598941.680747494101524 ], [ -723946.871235005557537, 5598763.45254760235548 ], [ -723995.250265136361122, 5598436.038289431482553 ], [ -723930.687633492052555, 5597999.166935618966818 ], [ -724246.114493116736412, 5597755.701276071369648 ], [ -724361.129717253148556, 5597474.702912177890539 ], [ -724640.017710030078888, 5597012.335330948233604 ], [ -724719.389748148620129, 5596727.324808064848185 ], [ -724643.490006648004055, 5596329.765250507742167 ], [ -724112.032311610877514, 5595964.057572823017836 ], [ -723111.188824512064457, 5595320.148999880999327 ], [ -723367.120396971702576, 5594973.005225986242294 ], [ -723458.33259841054678, 5594461.142081055790186 ], [ -723810.138820052146912, 5594016.614497259259224 ], [ -723568.881688356399536, 5592491.196560315787792 ], [ -724178.742123186588287, 5591720.604374270886183 ], [ -724156.325565204024315, 5591500.671806242316961 ], [ -724196.361267827451229, 5591107.836044430732727 ], [ -724070.708301067352295, 5590541.152329690754414 ], [ -723897.571984894573689, 5590238.866210944950581 ], [ -723759.183174028992653, 5589743.86149549856782 ], [ -723836.702502608299255, 5588983.281302511692047 ], [ -723613.751613147556782, 5588485.295074429363012 ], [ -723725.380427867174149, 5588395.898773696273565 ], [ -723878.689071521162987, 5588204.456215310841799 ], [ -724825.926679126918316, 5588322.281177699565887 ], [ -725463.970383606851101, 5587856.19590787962079 ], [ -725880.842290483415127, 5587737.00901996716857 ], [ -725995.415809072554111, 5587336.308444984257221 ], [ -725960.570146970450878, 5587056.181222643703222 ], [ -726096.689081959426403, 5586579.458210200071335 ], [ -726372.890032514929771, 5586358.274143040180206 ], [ -726647.12784718722105, 5585616.478706628084183 ], [ -726941.782275140285492, 5585380.522041875869036 ], [ -727075.876726232469082, 5585213.078819792717695 ], [ -727288.018098674714565, 5585123.682519055902958 ], [ -727624.106963582336903, 5584878.180106025189161 ], [ -727881.59677517414093, 5584267.12952009961009 ], [ -728192.63111823797226, 5584018.044384054839611 ], [ -728282.027418971061707, 5583705.39045388251543 ], [ -728438.354384057223797, 5583459.667188059538603 ], [ -728809.509763814508915, 5583059.089309073984623 ], [ -729481.785650409758091, 5582703.35681564360857 ], [ -729745.017634510993958, 5582713.785975076258183 ], [ -730583.804253622889519, 5582680.547630477696657 ], [ -731103.851221300661564, 5582804.421505335718393 ], [ -731482.969571061432362, 5583005.029454421252012 ], [ -731629.701709493994713, 5582389.034219957888126 ], [ -731851.953231796622276, 5582149.175822611898184 ], [ -732629.477741435170174, 5582000.72594029456377 ], [ -733380.561264559626579, 5581190.11032123491168 ], [ -734203.078394941985607, 5581333.333354234695435 ], [ -734320.253068596124649, 5580999.023581240326166 ], [ -734368.595289945602417, 5580544.803013972938061 ], [ -735120.599033020436764, 5580397.997257966548204 ], [ -735221.94592347741127, 5580292.515512503683567 ], [ -735756.765488766133785, 5580118.962029960006475 ], [ -736530.621388249099255, 5579992.990053616464138 ], [ -736862.747172564268112, 5579879.312215801328421 ], [ -736729.597480617463589, 5579490.316838588565588 ], [ -736733.781413987278938, 5579285.377720940858126 ], [ -737122.273737631738186, 5579293.316151708364487 ], [ -737444.645190484821796, 5579182.963375318795443 ], [ -737931.85871035605669, 5579192.914020378142595 ], [ -738327.77414159476757, 5578924.541074190288782 ], [ -738438.347770780324936, 5578583.802031144499779 ], [ -738554.62676364928484, 5578485.301687706261873 ], [ -739153.677681431174278, 5578690.35123174265027 ], [ -739392.210962012410164, 5578938.6143046207726 ], [ -740000.476348921656609, 5579523.015320800244808 ], [ -740370.699239164590836, 5579272.065205670893192 ], [ -740582.987846799194813, 5579051.101991295814514 ], [ -741259.852563552558422, 5578886.100419484078884 ], [ -741453.724502593278885, 5578684.314588870853186 ], [ -741868.498308010399342, 5578376.838429611176252 ], [ -742309.08735042065382, 5578385.832045920193195 ], [ -742582.50310193747282, 5578380.249378226697445 ], [ -743162.548410356044769, 5578181.714991439133883 ], [ -743359.708602018654346, 5578185.739420019090176 ], [ -743951.23825541138649, 5577983.266491837799549 ], [ -744505.173856444656849, 5578916.418599434196949 ], [ -745375.726468250155449, 5579086.364819783717394 ], [ -745895.650739908218384, 5579297.25469309464097 ], [ -746267.677261255681515, 5579684.470978409051895 ], [ -746793.55228865146637, 5580029.246719639748335 ], [ -747433.203310593962669, 5581187.803636562079191 ], [ -747584.990523964166641, 5581500.678419526666403 ], [ -747642.706719219684601, 5581599.178762957453728 ], [ -748087.553312599658966, 5581297.641089778393507 ], [ -748302.676197670400143, 5581193.275877863168716 ], [ -749150.566859520971775, 5581210.576012920588255 ], [ -749595.241678506135941, 5581096.615974321961403 ], [ -750251.468929179012775, 5580968.509087696671486 ], [ -750600.36725577712059, 5581500.678419526666403 ], [ -750651.62964178621769, 5581549.92859124019742 ], [ -750695.419841803610325, 5581493.206233531236649 ], [ -750883.905426725745201, 5581347.713324654847383 ], [ -751190.375478848814964, 5580835.298047751188278 ], [ -751606.498940199613571, 5580773.802815899252892 ], [ -751966.623950190842152, 5580827.028337802737951 ], [ -752605.072551429271698, 5580565.72268083319068 ], [ -752819.115711770951748, 5580400.500256225466728 ], [ -752964.608620651066303, 5580212.014671292155981 ], [ -753321.678500413894653, 5579998.45002531632781 ], [ -753409.258900441229343, 5579885.005309898406267 ], [ -753465.981258153915405, 5579841.215109881013632 ], [ -753411.0748011469841, 5579695.096451431512833 ], [ -753316.095832712948322, 5579266.752469163388014 ], [ -753018.324926510453224, 5578580.157960139214993 ], [ -752875.654025495052338, 5578331.060554500669241 ], [ -753081.096196688711643, 5577630.957216620445251 ], [ -753612.099916599690914, 5577400.669106759130955 ], [ -753520.887715123593807, 5576971.957036506384611 ], [ -753411.0748011469841, 5576880.744835074990988 ], [ -753274.256498955190182, 5576716.025464039295912 ], [ -753061.440298542380333, 5576539.245076861232519 ], [ -753119.303729027509689, 5575971.481637381017208 ], [ -753101.856358781456947, 5575800.296187497675419 ], [ -753219.35004198551178, 5575272.543911434710026 ], [ -753264.95614268630743, 5575217.63745442032814 ], [ -753323.50667068362236, 5575259.599484141916037 ], [ -753968.237306788563728, 5575388.332120332866907 ], [ -754122.220778420567513, 5575357.903513982892036 ], [ -754412.556307412683964, 5575477.213097888976336 ], [ -755013.693057082593441, 5575635.809938851743937 ], [ -755186.829373255372047, 5575877.37381050363183 ], [ -755878.282643608748913, 5575921.225358512252569 ], [ -755924.796694673597813, 5575975.223865173757076 ], [ -756273.57232528924942, 5576130.851463101804256 ], [ -756919.726234905421734, 5576534.153193142265081 ], [ -757130.947387404739857, 5576779.324326995760202 ], [ -757339.456958420574665, 5576872.352429125458002 ], [ -757699.913247622549534, 5577447.845716193318367 ], [ -758528.049854531884193, 5577925.304904598742723 ], [ -758921.388669893145561, 5578381.868965338915586 ], [ -759402.013414919376373, 5578526.576619856059551 ], [ -759844.786446042358875, 5578279.52823730558157 ], [ -760254.32113254070282, 5578186.50013517960906 ], [ -760950.424581043422222, 5577977.990564126521349 ], [ -761359.959267541766167, 5577884.962461996823549 ], [ -761452.987369678914547, 5577776.965448670089245 ], [ -761829.725417166948318, 5577541.008783921599388 ], [ -762467.977704793214798, 5577592.28343952447176 ], [ -763371.167450837790966, 5577345.100091390311718 ], [ -764166.826428316533566, 5577583.424788814038038 ], [ -764545.650307685136795, 5577676.452890943735838 ], [ -764981.920451134443283, 5577367.12402218952775 ], [ -765259.115239232778549, 5577389.393344976007938 ], [ -765674.51479422301054, 5577683.937346540391445 ], [ -766003.892188288271427, 5577776.965448670089245 ], [ -766130.563531793653965, 5577629.938839878886938 ], [ -766208.475487552583218, 5577562.811861932277679 ], [ -766076.111049957573414, 5577079.156525865197182 ], [ -766104.539711609482765, 5576725.325820330530405 ], [ -766054.860103875398636, 5576107.158866789191961 ], [ -766259.308437585830688, 5575740.715013142675161 ], [ -766720.780338056385517, 5575343.143185988068581 ], [ -767973.776361033320427, 5575443.827518105506897 ], [ -768547.159276992082596, 5574778.299911145120859 ], [ -768890.916641496121883, 5574970.098287902772427 ], [ -769459.06043852865696, 5575223.600479695945978 ], [ -770025.903658099472523, 5575015.446727029979229 ], [ -770797.01116731762886, 5575653.294117901474237 ], [ -771061.494650475680828, 5575960.279493190348148 ], [ -771202.705469228327274, 5576276.761538356542587 ], [ -771256.703975848853588, 5576323.275589421391487 ], [ -771300.494175903499126, 5576266.553231712430716 ], [ -771614.964006781578064, 5576078.460273955017328 ], [ -771702.544406808912754, 5575864.503000803291798 ], [ -771872.723749540746212, 5575733.144670356065035 ], [ -772058.178743444383144, 5575492.869106639176607 ], [ -772720.602141782641411, 5575763.990443076938391 ], [ -773210.232772722840309, 5576178.972831677645445 ], [ -773524.702603593468666, 5576266.553231712430716 ], [ -773679.275015957653522, 5576466.793092809617519 ], [ -774107.201831884682178, 5576641.941623274236917 ], [ -774215.358349993824959, 5576782.048178046941757 ], [ -774328.803065419197083, 5576869.628578078001738 ], [ -774490.504115007817745, 5577079.107447475194931 ], [ -774774.643496342003345, 5577127.376051239669323 ], [ -774859.880402900278568, 5576844.26731625571847 ], [ -775408.171988248825073, 5576599.611505579203367 ], [ -775539.81251947581768, 5576363.679380025714636 ], [ -775492.819954037666321, 5575778.836658265441656 ], [ -776034.792695730924606, 5575573.173634264618158 ], [ -776229.27811473608017, 5575464.661297772079706 ], [ -776611.80741310864687, 5575495.396644093096256 ], [ -776644.98440970480442, 5575082.512356977909803 ], [ -776509.503493882715702, 5574713.590044267475605 ], [ -776546.398179069161415, 5574254.375750072300434 ], [ -776249.167135238647461, 5573721.642016679048538 ], [ -776227.818032421171665, 5573455.870225548744202 ], [ -776429.358471043407917, 5573094.628682013601065 ], [ -776135.305253453552723, 5572851.850120037794113 ], [ -775826.283124677836895, 5572658.309460170567036 ], [ -775478.231400422751904, 5572101.748164881020784 ], [ -775587.050476908683777, 5571505.187975764274597 ], [ -775961.690422885119915, 5571070.341105837374926 ], [ -776537.35548435151577, 5571243.649196397513151 ], [ -776890.634057931602001, 5571440.760309670120478 ], [ -777036.176045201718807, 5571452.45323783159256 ], [ -777455.85769035667181, 5571418.736378863453865 ], [ -778384.114227809011936, 5571696.765499729663134 ], [ -779398.221151798963547, 5571800.210491698235273 ], [ -779540.695739217102528, 5572059.786135159432888 ], [ -780059.847026169300079, 5572143.7101945951581 ], [ -780269.669444344937801, 5572436.450565051287413 ], [ -780836.15684550255537, 5572842.476146142929792 ], [ -780947.871547408401966, 5573265.936827886849642 ], [ -781064.972603410482407, 5573450.373445048928261 ], [ -781178.147387683391571, 5574014.909979913383722 ], [ -781926.298476547002792, 5573834.64502652361989 ], [ -782112.060210406780243, 5573910.97420396655798 ], [ -782155.850410409271717, 5574168.721677135676146 ], [ -782307.748050175607204, 5574824.261830240488052 ], [ -781852.914002940058708, 5575968.512394342571497 ], [ -781874.901124946773052, 5576117.293555840849876 ], [ -782068.270010411739349, 5576266.553231712430716 ], [ -782169.567822501063347, 5576514.031050235033035 ], [ -782369.807683601975441, 5576668.603462621569633 ], [ -782413.597883604466915, 5576926.350935786962509 ], [ -782413.597883604466915, 5577026.863493513315916 ], [ -782614.62299907207489, 5577026.863493513315916 ], [ -782747.269637450575829, 5576920.64557209610939 ], [ -783008.329902425408363, 5576490.829237900674343 ], [ -783273.512752793729305, 5576379.089996781200171 ], [ -783465.360207945108414, 5576266.320109326392412 ], [ -783939.67837892472744, 5576325.312342911958694 ], [ -784128.016728661954403, 5576090.116393323987722 ], [ -784683.461490392684937, 5575752.7392204888165 ], [ -784876.155547931790352, 5575776.701747979968786 ], [ -785026.924384526908398, 5575757.953800201416016 ], [ -785639.28781758248806, 5575834.123472854495049 ], [ -785775.21043898165226, 5575664.385835699737072 ], [ -785886.839253701269627, 5575574.989534970372915 ], [ -785976.235554434359074, 5575463.360720247030258 ], [ -786166.856049656867981, 5575373.964419513940811 ], [ -786687.381531707942486, 5575679.9436876475811 ], [ -786780.336016252636909, 5575563.873277973383665 ], [ -787463.715890243649483, 5575444.944051649421453 ], [ -787690.507164299488068, 5575578.253248386085033 ], [ -787885.974151253700256, 5575463.360720247030258 ], [ -788368.463875383138657, 5575358.970969129353762 ], [ -788565.243709467351437, 5575383.448819797486067 ], [ -788891.099728524684906, 5575574.989534970372915 ], [ -789203.753658697009087, 5575664.385835699737072 ], [ -789570.614678733050823, 5575805.40034081786871 ], [ -789940.702603377401829, 5575759.364804126322269 ], [ -790097.25042125582695, 5575563.873277973383665 ], [ -790338.32350891828537, 5575373.964419513940811 ], [ -790575.593020811676979, 5575670.2629737816751 ], [ -791012.979697793722153, 5575764.898393429815769 ], [ -791127.356902770698071, 5576164.924140442162752 ], [ -791716.567601889371872, 5576267.461182065308094 ], [ -792001.430889546871185, 5576434.904404144734144 ], [ -792645.40081050246954, 5576574.237974163144827 ], [ -792811.089479863643646, 5576781.140227690339088 ], [ -792967.416444972157478, 5576825.838378060609102 ], [ -793143.620160974562168, 5577177.215163730084896 ], [ -793494.371197089552879, 5577278.439358215779066 ], [ -793570.491791345179081, 5577428.913724422454834 ], [ -793828.239264510571957, 5577472.703924436122179 ], [ -794129.727859295904636, 5577863.294349569827318 ], [ -794531.827168583869934, 5577975.266713079065084 ], [ -794719.920126356184483, 5578088.711428496986628 ], [ -795078.180157251656055, 5578233.01418624445796 ], [ -795138.387081176042557, 5578563.10321706905961 ], [ -795777.780441530048847, 5579336.063435781747103 ], [ -796384.5243980884552, 5579606.804414644837379 ], [ -796574.703187748789787, 5580238.480197049677372 ], [ -797478.05243856459856, 5580443.713785070925951 ], [ -797838.533266961574554, 5580699.314078353345394 ], [ -798147.555395700037479, 5580892.854738220572472 ], [ -798287.109818495810032, 5581054.837988596409559 ], [ -798545.667085230350494, 5581277.604834072291851 ], [ -798642.63372877985239, 5581704.439655628055334 ], [ -798797.144793152809143, 5581750.953706700354815 ], [ -798922.184279955923557, 5581912.949226681143045 ], [ -799164.373901143670082, 5581877.158805426210165 ], [ -799343.497781813144684, 5582109.213737592101097 ], [ -799456.942497238516808, 5582196.794137623161077 ], [ -799745.548012726008892, 5582594.181920781731606 ], [ -799442.415291629731655, 5583003.041779320687056 ], [ -799479.923456788063049, 5583256.912059102207422 ], [ -799260.886569492518902, 5583814.099103961139917 ], [ -799129.30738627910614, 5583915.666847232729197 ], [ -799557.455054961144924, 5584006.020176716148853 ], [ -799942.254229202866554, 5584291.300630781799555 ], [ -800361.555516764521599, 5584408.070407625287771 ], [ -800505.858274526894093, 5584464.792765334248543 ], [ -800690.319430887699127, 5584397.052307423204184 ], [ -800984.32357008010149, 5584420.671286135911942 ], [ -801162.441343575716019, 5584627.414034876972437 ], [ -801405.244444727897644, 5584607.905371941626072 ], [ -801923.475511744618416, 5584318.772263687103987 ], [ -802569.310411758720875, 5584679.105856865644455 ], [ -803004.733952857553959, 5585184.50292294472456 ], [ -803374.208397552371025, 5585415.919835951179266 ], [ -803420.722448617219925, 5585469.918342605233192 ], [ -803587.135024361312389, 5585531.033216878771782 ], [ -803923.28523725271225, 5585504.027828749269247 ], [ -804254.306757636368275, 5585530.616050500422716 ], [ -804678.785816118121147, 5585414.447484027594328 ], [ -804974.92486559599638, 5585624.429406996816397 ], [ -805457.439128927886486, 5585734.046007424592972 ], [ -806188.155117139220238, 5586002.382144816219807 ], [ -806477.466134555637836, 5586338.188808929175138 ], [ -806585.978471048176289, 5587050.316354155540466 ], [ -807444.703189119696617, 5587769.584806192666292 ], [ -807634.771552376449108, 5587990.204471789300442 ], [ -808023.098236426711082, 5588324.759636770933867 ], [ -807990.007127031683922, 5588736.576468743383884 ], [ -808001.295158416032791, 5588877.051111500710249 ], [ -808512.753406569361687, 5589244.317028302699327 ], [ -808694.63794706761837, 5589848.423021011054516 ], [ -808999.942387245595455, 5589736.303422313183546 ], [ -809210.053140990436077, 5589853.539443925023079 ], [ -809451.475912258028984, 5589834.141207385808229 ], [ -809692.898683473467827, 5589853.539443925023079 ], [ -809904.230262383818626, 5589735.628594350069761 ], [ -810360.364887170493603, 5590059.04296313598752 ], [ -810891.994356624782085, 5590016.332487866282463 ], [ -811307.222137190401554, 5590248.007062450051308 ], [ -811461.727066799998283, 5590294.521113514900208 ], [ -811508.24725267291069, 5590549.544735629111528 ], [ -812158.781409248709679, 5591110.007763512432575 ], [ -812354.874145776033401, 5591549.468002784997225 ], [ -812515.4218530356884, 5592776.501553580164909 ], [ -812775.868638053536415, 5593000.887986164540052 ], [ -812997.144727200269699, 5593257.72750897705555 ], [ -813324.94547775387764, 5593356.411896400153637 ], [ -813680.960171967744827, 5593769.639732304960489 ], [ -814021.318857438862324, 5593742.290795397013426 ], [ -814157.781341210007668, 5594048.122828345745802 ], [ -814376.591240897774696, 5594113.998307153582573 ], [ -814532.918205983936787, 5594661.259246159344912 ], [ -814706.600519292056561, 5595854.563668385148048 ], [ -814489.704677134752274, 5596223.547329094260931 ], [ -814554.156882427632809, 5596741.741587281227112 ], [ -814934.968436889350414, 5596973.048073884099722 ], [ -815024.36473760008812, 5597084.67688861489296 ], [ -815357.085597507655621, 5597224.881600175052881 ], [ -815255.523989006876945, 5598041.411166112869978 ], [ -815683.254491321742535, 5598335.525731697678566 ], [ -815639.151416555047035, 5598595.13818397000432 ], [ -815437.985200680792332, 5598565.421214386820793 ], [ -814854.381708480417728, 5598727.932057533413172 ], [ -814634.344848863780499, 5599095.835993506014347 ], [ -814420.375306099653244, 5599183.416393533349037 ], [ -814170.983430072665215, 5599792.7737747579813 ], [ -813874.028452262282372, 5599843.214097607880831 ], [ -813818.214044898748398, 5599887.912247978150845 ], [ -813728.817744165658951, 5600128.985335648059845 ], [ -813931.100493550300598, 5600290.968586027622223 ], [ -813905.530648544430733, 5600496.545722838491201 ], [ -813930.738540343940258, 5600699.190425403416157 ], [ -813799.920072294771671, 5601275.088609252125025 ], [ -813930.983932361006737, 5601498.051768310368061 ], [ -813896.948063775897026, 5601771.712911807000637 ], [ -814030.355417348444462, 5601998.675960250198841 ], [ -814160.216856673359871, 5602890.908954072743654 ], [ -813926.149710223078728, 5603078.33935346826911 ], [ -813829.330301895737648, 5603416.968025423586369 ], [ -813717.701487168669701, 5603606.876883890479803 ], [ -813590.103788919746876, 5603909.678325802087784 ], [ -813149.066906131803989, 5604262.858742568641901 ], [ -812714.514506556093693, 5604208.811157513409853 ], [ -812522.667051434516907, 5604321.581044975668192 ], [ -812310.525678984820843, 5604410.977345708757639 ], [ -812167.149275995790958, 5604751.225604776293039 ], [ -812321.641935981810093, 5605014.05269206687808 ], [ -812366.340086326003075, 5605170.379657156765461 ], [ -812153.198741555213928, 5605257.960057187825441 ], [ -811909.67786879837513, 5605209.838688611984253 ], [ -811548.908704832196236, 5605438.887568935751915 ], [ -811411.470787927508354, 5605411.734945613890886 ], [ -811260.701951324939728, 5605441.525532796978951 ], [ -811028.923085138201714, 5605395.723118484020233 ], [ -810813.935165651142597, 5605532.210141453891993 ], [ -810301.476945176720619, 5605633.483414340764284 ], [ -810113.101786635816097, 5605513.879360053688288 ], [ -809853.526143133640289, 5605471.917330339550972 ], [ -809995.816686600446701, 5605631.164460070431232 ], [ -810231.221219375729561, 5605841.502201419323683 ], [ -810199.326395936310291, 5606376.530349887907505 ], [ -810220.080423206090927, 5606724.655691727995872 ], [ -810610.198468767106533, 5607228.065082713961601 ], [ -810715.361204609274864, 5607457.199850242584944 ], [ -810704.889101609587669, 5607632.937321476638317 ], [ -810721.808879092335701, 5607916.868119619786739 ], [ -810604.542183473706245, 5608132.678102262318134 ], [ -810509.685911037027836, 5608439.85979113727808 ], [ -810358.174763686954975, 5608718.674166362732649 ], [ -810101.979394838213921, 5608836.266006354242563 ], [ -809973.982934586703777, 5609522.038452219218016 ], [ -809706.554747566580772, 5610014.159811824560165 ], [ -810007.123122379183769, 5610444.466929998248816 ], [ -810101.979394838213921, 5610682.816166616976261 ], [ -809599.416606202721596, 5611047.542276356369257 ], [ -809551.988469988107681, 5611201.13312079384923 ], [ -809450.518883511424065, 5611497.578910253942013 ], [ -809691.101187214255333, 5611747.976893421262503 ], [ -810200.344772681593895, 5612081.84496084228158 ], [ -810001.313467122614384, 5612663.325812380760908 ], [ -810007.374649189412594, 5612960.102881025522947 ], [ -809609.281364068388939, 5613153.238644104450941 ], [ -809400.213526248931885, 5613461.659562516957521 ], [ -809298.737804971635342, 5613670.831691931933165 ], [ -808798.144287027418613, 5613660.61111568659544 ], [ -808695.055113412439823, 5613873.108306508511305 ], [ -808495.60050667822361, 5614064.734908882528543 ], [ -808393.517440259456635, 5614275.158537417650223 ], [ -808194.062833480536938, 5614466.78513978049159 ], [ -808095.562490083277225, 5614770.335027258843184 ], [ -808044.300104074180126, 5614819.585198979824781 ], [ -807968.547597765922546, 5615016.659503445029259 ], [ -808042.017958596348763, 5615607.342554483562708 ], [ -807885.83209390193224, 5615873.040728021413088 ], [ -808034.361728616058826, 5616393.173582900315523 ], [ -807763.688232555985451, 5617097.3626973554492 ], [ -807485.922908075153828, 5617477.609850253909826 ], [ -807389.103499747812748, 5617816.238522216677666 ], [ -807171.753682382404804, 5617990.28278873860836 ], [ -807202.446085102856159, 5618237.012161701917648 ], [ -807174.906969413161278, 5618458.417081650346518 ], [ -806983.360119417309761, 5618784.273100711405277 ], [ -806856.418844752013683, 5619085.516303513199091 ], [ -806919.190114922821522, 5619590.152654428035021 ], [ -807762.111588999629021, 5619712.836378153413534 ], [ -807442.010012060403824, 5620151.057387892156839 ], [ -807532.406285107135773, 5620877.834834724664688 ], [ -807333.957785554230213, 5621036.750685270875692 ], [ -807668.034436158835888, 5621494.087730769068003 ], [ -807798.576838247478008, 5621598.624717075377703 ], [ -807962.529359325766563, 5621803.355251528322697 ], [ -807755.363309405744076, 5622155.787222739309072 ], [ -807799.71791099011898, 5622512.415396917611361 ], [ -807665.169484719634056, 5622741.317042052745819 ], [ -807707.542546011507511, 5623081.994737107306719 ], [ -807943.566693559288979, 5623483.517375241965055 ], [ -808100.1145114377141, 5623608.875871617347002 ], [ -808278.680125311017036, 5623831.863569878041744 ], [ -808345.837777256965637, 5624066.740509890019894 ], [ -808312.071839898824692, 5624334.512245707213879 ], [ -808178.578599125146866, 5624502.556678157299757 ], [ -808099.78936705738306, 5624892.828093711286783 ], [ -807742.762430891394615, 5625071.866087164729834 ], [ -807690.089040949940681, 5625222.156409371644258 ], [ -807808.46000050753355, 5625787.932173777371645 ], [ -807790.963551834225655, 5626229.404627338051796 ], [ -807895.4453249797225, 5626426.871558982878923 ], [ -807992.129767715930939, 5626631.724789433181286 ], [ -808290.919050648808479, 5626908.576028756797314 ], [ -807590.079536788165569, 5627130.459463074803352 ], [ -806704.613227017223835, 5627494.167196072638035 ], [ -807013.825534582138062, 5628078.519133850932121 ], [ -807292.369978614151478, 5628336.610155802220106 ], [ -807437.3905079215765, 5628493.121164884418249 ], [ -807593.907651796936989, 5628638.147828985005617 ], [ -807698.082684926688671, 5628750.574167661368847 ], [ -807657.887477517127991, 5629764.69336124509573 ], [ -807211.194309435784817, 5630347.204859126359224 ], [ -806683.251854546368122, 5630596.36361276730895 ], [ -806690.509322583675385, 5630779.561000388115644 ], [ -807258.567232459783554, 5631305.902272533625364 ], [ -807788.546440802514553, 5632028.458977188915014 ], [ -808334.255275458097458, 5632380.841870006173849 ], [ -808691.883422017097473, 5632766.81892578676343 ], [ -809089.215991981327534, 5633134.968253739178181 ], [ -809228.936054371297359, 5633431.021416023373604 ], [ -809350.963354527950287, 5633816.458609439432621 ], [ -809268.855195797979832, 5633935.375566158443689 ], [ -808591.156146302819252, 5634109.297136690467596 ], [ -808358.904900521039963, 5634445.668202377855778 ], [ -807843.274988621473312, 5634319.021398074924946 ], [ -807654.899830058217049, 5634652.214637532830238 ], [ -807106.773884281516075, 5634883.17757535725832 ], [ -807043.149876981973648, 5635394.684901904314756 ], [ -807554.129610747098923, 5635705.056686602532864 ], [ -806936.901281543076038, 5636537.107295699417591 ], [ -807301.222494505345821, 5637156.893836360424757 ], [ -807170.262926064431667, 5637969.264008119702339 ], [ -807314.209865428507328, 5638214.140671595931053 ], [ -807121.589425474405289, 5638671.256864305585623 ], [ -806403.130767032504082, 5638947.421006064862013 ], [ -805476.457007892429829, 5638682.802557274699211 ], [ -805225.71547593921423, 5639626.469711489975452 ], [ -804995.341478884220123, 5639914.142737425863743 ], [ -804827.898256801068783, 5640048.237188529223204 ], [ -805245.690383620560169, 5640987.573174182325602 ], [ -805676.163141399621964, 5641257.197619505226612 ], [ -806206.694481730461121, 5641872.98427077382803 ], [ -806595.401523366570473, 5642493.568335391581059 ], [ -806784.157039485871792, 5642916.587311550974846 ], [ -807114.338092304766178, 5643063.920660331845284 ], [ -807039.174526803195477, 5643968.226939890533686 ], [ -807290.455921120941639, 5644029.943024531006813 ], [ -807541.737315438687801, 5643968.226939890533686 ], [ -807589.165451653301716, 5644021.305226609110832 ], [ -808002.522118352353573, 5644211.030041076242924 ], [ -808443.60807953774929, 5644450.716664023697376 ], [ -808902.38066815584898, 5645238.719411518424749 ], [ -809481.738879010081291, 5645504.626168243587017 ], [ -810101.930316440761089, 5646013.470991730690002 ], [ -810367.702107571065426, 5646592.534732203930616 ], [ -810811.223584182560444, 5646729.500269547104836 ], [ -811506.958944737911224, 5647508.165851950645447 ], [ -811661.666322693228722, 5648009.170401468873024 ], [ -811969.946140728890896, 5648284.610636875033379 ], [ -812234.221040740609169, 5648580.39386797323823 ], [ -812206.970260627567768, 5649037.608217474073172 ], [ -812519.937065564095974, 5649543.851885914802551 ], [ -812667.877759516239166, 5649797.955288078635931 ], [ -812826.940845273435116, 5649839.917317792773247 ], [ -813183.023022264242172, 5650111.848447784781456 ], [ -814230.785457231104374, 5650321.903988346457481 ], [ -814318.040712885558605, 5650861.631393358111382 ], [ -814435.141768902540207, 5651146.580568250268698 ], [ -814519.065828323364258, 5651766.244412910193205 ], [ -814577.616356320679188, 5651808.206442624330521 ], [ -814625.044492565095425, 5651961.797287061810493 ], [ -814832.051037661731243, 5652056.813064284622669 ], [ -814825.143253274261951, 5652172.711699578911066 ], [ -815223.659839570522308, 5652528.775472193956375 ], [ -815630.378653004765511, 5653168.279258970171213 ], [ -815834.02332791686058, 5653156.14462523162365 ], [ -816419.313890069723129, 5653191.027096133679152 ], [ -816598.572736293077469, 5652990.394607856869698 ], [ -817047.149287886917591, 5653492.442073319107294 ], [ -817678.309747122228146, 5654621.723726235330105 ], [ -817841.446339838206768, 5654977.174018878489733 ], [ -818015.459932364523411, 5655132.654381610453129 ], [ -818142.984013020992279, 5655680.761922977864742 ], [ -818409.344744920730591, 5656062.088800609111786 ], [ -818689.171362087130547, 5656312.106426198035479 ], [ -819053.2533178627491, 5656479.218369096517563 ], [ -819606.771752506494522, 5657098.71043936163187 ], [ -819449.647263459861279, 5657685.369061823934317 ], [ -819309.184890322387218, 5658437.924936849623919 ], [ -819555.816106498241425, 5658791.007196824997663 ], [ -819650.672378934919834, 5659098.188885699957609 ], [ -819931.308789655566216, 5659772.918692156672478 ], [ -820153.235167570412159, 5660806.902367055416107 ], [ -820290.513579696416855, 5661189.505283027887344 ], [ -820252.582113362848759, 5661825.941669974476099 ], [ -820549.45733879506588, 5662372.257849831134081 ], [ -820692.410440608859062, 5662835.214371826499701 ], [ -821358.392022751271725, 5663694.589378632605076 ], [ -821412.470281809568405, 5663869.713369905948639 ], [ -821501.866582535207272, 5664182.367300074547529 ], [ -822011.44144719094038, 5664590.435769457370043 ], [ -822462.294009447097778, 5665332.703585438430309 ], [ -822906.410561665892601, 5665888.007246807217598 ], [ -822861.68787207454443, 5666247.555585630238056 ], [ -822964.856798082590103, 5666840.391951348632574 ], [ -823079.068363465368748, 5667240.374754771590233 ], [ -823020.671205446124077, 5667287.140332628041506 ], [ -822974.15101957321167, 5667542.15781993791461 ], [ -822859.681792609393597, 5667853.873125772923231 ], [ -823074.663577303290367, 5668439.298653494566679 ], [ -823167.70394903421402, 5668748.308512665331364 ], [ -823578.974783830344677, 5669674.785958230495453 ], [ -823778.251481391489506, 5669846.474461678415537 ], [ -824219.34357737749815, 5670611.533058419823647 ], [ -824726.617892161011696, 5671048.570051822811365 ], [ -825030.922359988093376, 5671609.180314898490906 ], [ -824971.463881604373455, 5671851.259509716182947 ], [ -824889.355722896754742, 5672578.791536904871464 ], [ -825157.569164253771305, 5673217.381238535046577 ], [ -824971.463881604373455, 5673660.485548809170723 ], [ -824930.409802258014679, 5673920.969142626971006 ], [ -825092.393052645027637, 5674060.523565430194139 ], [ -825342.490430623292923, 5674350.810016024857759 ], [ -826072.807656846940517, 5674875.224961068481207 ], [ -826291.065424576401711, 5674972.614905767142773 ], [ -826785.818613238632679, 5675323.408885467797518 ], [ -826886.668584942817688, 5675985.212669029831886 ], [ -826995.677840210497379, 5676383.526806943118572 ], [ -826866.84091242402792, 5676854.286794111132622 ], [ -826994.653328627347946, 5677083.378618042916059 ], [ -827087.693700402975082, 5677392.388477213680744 ], [ -827210.628950908780098, 5677727.16449499130249 ], [ -827450.702066235244274, 5677933.993130926042795 ], [ -827655.51235307008028, 5678171.722752775996923 ], [ -828301.31657912582159, 5678289.529310770332813 ], [ -828757.770213469862938, 5678414.452236372977495 ], [ -829183.396479494869709, 5678258.143675681203604 ], [ -829499.99508585780859, 5678699.051727667450905 ], [ -830211.055175937712193, 5679495.680003497749567 ], [ -830358.087919533252716, 5679750.697490815073252 ], [ -830643.061633616685867, 5680465.8801662735641 ], [ -830384.32645770907402, 5680894.819224111735821 ], [ -830452.901248373091221, 5681358.898414455354214 ], [ -830357.302665144205093, 5682005.837578423321247 ], [ -830580.032701849937439, 5682572.404731974005699 ], [ -831164.967445604503155, 5683023.895313393324614 ], [ -830985.641116566956043, 5683797.794156454503536 ], [ -831033.191948778927326, 5684119.539859738200903 ], [ -831419.941989287734032, 5684418.059211485087872 ], [ -831463.726054534316063, 5684474.78770399466157 ], [ -831106.373973958194256, 5684921.536085266619921 ], [ -830938.335676342248917, 5685509.249893266707659 ], [ -830402.78606989979744, 5685625.12398935854435 ], [ -830358.087919533252716, 5686686.063973996788263 ], [ -830410.258255891501904, 5686734.406195364892483 ], [ -830578.689180724322796, 5686916.186444267630577 ], [ -830379.590392366051674, 5687867.810433652251959 ], [ -830608.749699078500271, 5688521.620573256164789 ], [ -831745.982052370905876, 5689000.208564791828394 ], [ -831609.961274176836014, 5690174.439894862473011 ], [ -831081.534170143306255, 5690942.363443050533533 ], [ -831224.671315930783749, 5692040.11222567781806 ], [ -830205.405025444924831, 5692162.08431263640523 ], [ -829985.736253805458546, 5692399.163645729422569 ], [ -830010.330665670335293, 5693019.661823142319918 ], [ -830435.956931695342064, 5693569.260120820254087 ], [ -830834.056351616978645, 5693139.603291414678097 ], [ -831412.844026081264019, 5693342.462711971253157 ], [ -831813.814532250165939, 5693066.550096988677979 ], [ -831916.032564274966717, 5693070.605199567973614 ], [ -832017.95612595975399, 5693066.562366589903831 ], [ -832696.21957702934742, 5693244.287512909621 ], [ -833825.151546359062195, 5694268.535260744392872 ], [ -834297.230515457689762, 5695071.537593420594931 ], [ -834631.785680413246155, 5695177.461044456809759 ], [ -835828.347681261599064, 5695871.503200266510248 ], [ -835886.27859453856945, 5696536.294631272554398 ], [ -835806.041549704968929, 5697149.516936283558607 ], [ -835236.683062307536602, 5697595.412580400705338 ], [ -834556.634384535253048, 5697853.479063156992197 ], [ -833862.187331937253475, 5698659.53039126098156 ], [ -833427.457023195922375, 5698902.075830858200788 ], [ -833118.447164036333561, 5698995.116202589124441 ], [ -832627.60797756165266, 5699379.516614861786366 ], [ -831541.815919458866119, 5699864.018553283065557 ], [ -831314.877410218119621, 5700270.761905934661627 ], [ -831186.617153607308865, 5700973.889700051397085 ], [ -830605.633220858871937, 5701105.879914861172438 ], [ -830307.05865591019392, 5701215.521054495126009 ], [ -830110.542618207633495, 5701105.879914861172438 ], [ -829270.817374736070633, 5700952.700102005153894 ], [ -828658.006101302802563, 5700610.789312221109867 ], [ -828220.877085901796818, 5700843.120310373604298 ], [ -828037.158240303397179, 5701254.838985554873943 ], [ -827890.830998666584492, 5701424.680914305150509 ], [ -827242.19862999022007, 5701360.897402178496122 ], [ -827197.500479601323605, 5701718.249482721090317 ], [ -827075.381157472729683, 5702035.958487827330828 ], [ -827111.772789090871811, 5702328.551623091101646 ], [ -827728.301751121878624, 5703099.432144716382027 ], [ -827612.335633039474487, 5704031.756054356694221 ], [ -827800.575825989246368, 5704521.484842091798782 ], [ -827889.972126722335815, 5704983.600896533578634 ], [ -827491.357383601367474, 5705302.806792754679918 ], [ -827398.52559507638216, 5705917.912481259554625 ], [ -827901.088383711874485, 5706129.685765728354454 ], [ -828339.695885829627514, 5706480.473610632121563 ], [ -828516.783012993633747, 5706900.719657350331545 ], [ -828340.260287404060364, 5707518.886610891669989 ], [ -828448.349322684109211, 5707994.726212177425623 ], [ -828162.418579883873463, 5708457.241028599441051 ], [ -827658.217799738049507, 5709837.104708667844534 ], [ -827108.165526889264584, 5710089.55784972384572 ], [ -826946.317242100834846, 5710613.708998385816813 ], [ -826840.148399077355862, 5710909.590386275202036 ], [ -827141.115535877645016, 5710961.963171023875475 ], [ -827609.801960736513138, 5711733.60440780594945 ], [ -827461.082147240638733, 5712254.424360249191523 ], [ -827599.550710529088974, 5712864.027133457362652 ], [ -827644.248860880732536, 5713120.86665627732873 ], [ -827282.620824985206127, 5713280.034033603966236 ], [ -826945.433830946683884, 5713259.936429899185896 ], [ -826485.526304386556149, 5713670.857581119984388 ], [ -826390.670031927525997, 5713777.026424150913954 ], [ -825379.814551793038845, 5713934.54660777002573 ], [ -824905.655885607004166, 5714152.169423721730709 ], [ -824745.801410712301731, 5714839.245514512062073 ], [ -824480.931435123085976, 5714983.177116870880127 ], [ -823897.186842516064644, 5715251.093020487576723 ], [ -823620.022728405892849, 5715561.296098198741674 ], [ -821849.967385187745094, 5715689.240412630140781 ], [ -821580.165030673146248, 5716277.09838842228055 ], [ -821264.529587857425213, 5716390.352925054728985 ], [ -820686.766424916684628, 5716568.762101538479328 ], [ -820555.285398460924625, 5716686.234312944114208 ], [ -820370.364132143557072, 5717089.143415812402964 ], [ -819776.171975702047348, 5717361.85673275962472 ], [ -819656.328664220869541, 5717495.991060055792332 ], [ -819550.159821204841137, 5717590.847332488745451 ], [ -819449.935599058866501, 5717703.022144384682178 ], [ -819016.873955838382244, 5717677.20997478812933 ], [ -818645.546801656484604, 5717791.872447945177555 ], [ -818296.268117479979992, 5718391.80984428152442 ], [ -817410.274214908480644, 5718557.179504074156284 ], [ -817099.865621417760849, 5718725.861955691128969 ], [ -816434.270531661808491, 5718601.629195056855679 ], [ -816135.561001107096672, 5718494.448110088706017 ], [ -815984.792164511978626, 5718548.544773545116186 ], [ -815365.809282630681992, 5718800.065425049513578 ], [ -815074.768251679837704, 5719490.757980242371559 ], [ -814231.380532801151276, 5719609.484758179634809 ], [ -814175.566125437617302, 5719654.182908549904823 ], [ -814098.175073102116585, 5719697.890920851379633 ], [ -814088.247785322368145, 5719602.848564404994249 ], [ -814070.061176709830761, 5719428.7327153198421 ], [ -813604.702932208776474, 5718671.777230028063059 ] ] ] } }
]
}
