{
"type": "FeatureCollection",
"name": "预警站",
"crs": { "type": "name", "properties": { "name": "urn:ogc:def:crs:OGC:1.3:CRS84" } },
"features": [
{ "type": "Feature", "properties": { "Id": 0, "name": "预警站1号" }, "geometry": { "type": "Point", "coordinates": [ 89.645, 47.278 ] } },
{ "type": "Feature", "properties": { "Id": 1, "name": "预警站2号" }, "geometry": { "type": "Point", "coordinates": [ 89.714, 47.174 ] } },
{ "type": "Feature", "properties": { "Id": 2, "name": "预警站3号" }, "geometry": { "type": "Point", "coordinates": [ 89.457, 47.017 ] } },
{ "type": "Feature", "properties": { "Id": 3, "name": "预警站4号" }, "geometry": { "type": "Point", "coordinates": [ 88.989, 47.462 ] } }
]
}
