{
"type": "FeatureCollection",
"name": "积雪场",
"crs": { "type": "name", "properties": { "name": "urn:ogc:def:crs:OGC:1.3:CRS84" } },
"features": [
{ "type": "Feature", "properties": { "Id": 0, "name": "库威积雪水文观测场" }, "geometry": { "type": "Point", "coordinates": [ 89.66019, 47.35144 ] } },
{ "type": "Feature", "properties": { "Id": 1, "name": "喀依尔综合观测系统" }, "geometry": { "type": "Point", "coordinates": [ 89.74240, 47.71069 ] } },
{ "type": "Feature", "properties": { "Id": 2, "name": "金格观测系统" }, "geometry": { "type": "Point", "coordinates": [ 89.99317, 47.71006 ] } },
{ "type": "Feature", "properties": { "Id": 3, "name": "阿克萨拉观测场" }, "geometry": { "type": "Point", "coordinates": [ 89.38, 47.89 ] } },
{ "type": "Feature", "properties": { "Id": 4, "name": "可可托海滑雪场站" }, "geometry": { "type": "Point", "coordinates": [ 90.09, 47.2 ] } },
{ "type": "Feature", "properties": { "Id": 5, "name": "可可苏里观测场" }, "geometry": { "type": "Point", "coordinates": [ 89.75, 46.01 ] } },
{ "type": "Feature", "properties": { "Id": 6, "name": "森林站" }, "geometry": { "type": "Point", "coordinates": [ 90.0166, 47.1983 ] } }
]
}
